[{"OBJECT_NAME":"STARLINK-34096","OBJECT_ID":"2025-102X","EPOCH":"2026-03-09T12:16:41.946240","MEAN_MOTION":14.9833116,"ECCENTRICITY":0.00037929,"INCLINATION":70.0002,"RA_OF_ASC_NODE":114.9789,"ARG_OF_PERICENTER":267.5926,"MEAN_ANOMALY":92.4799,"EPHEMERIS_TYPE":0,"CLASSIFICATION_TYPE":"U","NORAD_CAT_ID":64043,"ELEMENT_SET_NO":999,"REV_AT_EPOCH":4581,"BSTAR":0.00029331627,"MEAN_MOTION_DOT":3.409e-5,"MEAN_MOTION_DDOT":0},{"OBJECT_NAME":"UNKNOWN","OBJECT_ID":"","EPOCH":"2026-03-08T11:45:51.038784","MEAN_MOTION":14.85715368,"ECCENTRICITY":0.0087365,"INCLINATION":97.6779,"RA_OF_ASC_NODE":256.4518,"ARG_OF_PERICENTER":23.5839,"MEAN_ANOMALY":6.4538,"EPHEMERIS_TYPE":0,"CLASSIFICATION_TYPE":"U","NORAD_CAT_ID":81845,"ELEMENT_SET_NO":999,"REV_AT_EPOCH":66225,"BSTAR":0.00036382,"MEAN_MOTION_DOT":3.326e-5,"MEAN_MOTION_DDOT":0}]
